INTELSAT 23 (IS-23)     
1 38867U 12057A   26066.35070554 -.00000287  00000+0  00000+0 0  9992
2 38867   0.0458 259.8698 0001223 101.1609 237.2625  1.00269653 48937
FM-6                    
1 39360U 13058A   26065.96208692 -.00000020  00000+0  00000+0 0  9990
2 39360   0.0226 131.1335 0003055  56.6832 207.0436  1.00274361 45042
INTELSAT 30 (IS-30)     
1 40271U 14062A   26066.35183693 -.00000153  00000+0  00000+0 0  9993
2 40271   0.0154  86.8030 0001424  25.9767  83.8948  1.00273260  5778
DIRECTV 14              
1 40333U 14078B   26066.35183693 -.00000127  00000+0  00000+0 0  9990
2 40333   0.0192 128.2415 0000513 349.0233  75.2164  1.00271702 41025
DIRECTV 15              
1 40663U 15026A   26066.36850411 -.00000104  00000+0  00000+0 0  9995
2 40663   0.0217 104.5304 0000858  73.6227  16.6984  1.00268719 39444
SKY MEXICO-1            
1 40664U 15026B   26066.34628199 -.00000236  00000+0  00000+0 0  9996
2 40664   0.0126 112.5928 0002226 253.6778 204.6367  1.00272010 39439
INTELSAT 34 (IS-34)     
1 40874U 15039A   26066.28369626 -.00000287  00000+0  00000+0 0  9999
2 40874   0.0185 251.7915 0000257 198.2464 121.5847  1.00271292 38606
INTELSAT 31 (IS-31)     
1 41581U 16035A   26066.35183693 -.00000152  00000+0  00000+0 0  9999
2 41581   0.0355 248.8943 0001678 334.5562 333.2149  1.00268708 35669
INTELSAT 36 (IS-36)     
1 41747U 16053A   26066.63877015  .00000000  00000+0  00000+0 0  9993
2 41747   0.0167 122.3899 0001153 218.2351 123.1847  1.00271147 34944
INTELSAT 32E (IS-32E)   
1 41945U 17007B   26066.44628306 -.00000271  00000+0  00000+0 0  9990
2 41945   0.0192 133.7918 0000181 162.3674 346.4640  1.00271618 33209
INTELSAT 35E (IS-35E)   
1 42818U 17041A   26066.44072536 -.00000240  00000+0  00000+0 0  9992
2 42818   0.0155 221.2887 0002077 129.3402 298.6594  1.00272362 31799
INTELSAT 37E (IS-37E)   
1 42950U 17059A   26066.43517022 -.00000142  00000+0  00000+0 0  9992
2 42950   0.0202 136.6451 0002134 213.9835 313.1587  1.00271589 31042
AZERSPACE 2 (IS-38)     
1 43632U 18074A   26066.33239008  .00000000  00000+0  00000+0 0  9994
2 43632   0.0202 154.9815 0001388 200.5147 334.3262  1.00271055 27425
HORIZONS-3E             
1 43633U 18074B   26066.48308677 -.00000032  00000+0  00000+0 0  9996
2 43633   0.0156 334.8330 0000569  12.7152 160.5189  1.00272186 27326
AT&T T-16               
1 44333U 19034A   26066.18100457 -.00000117  00000+0  00000+0 0  9998
2 44333   0.0218 103.9906 0000716  59.5848 325.6068  1.00270779 24617
INTELSAT 39 (IS-39)     
1 44476U 19049B   26066.63498597  .00000000  00000+0  00000+0 0  9997
2 44476   0.0212 154.5495 0000578 348.7083 312.6256  1.00270382 24103
GALAXY 30 (G-30)        
1 46114U 20056C   26066.51780862  .00000000  00000+0  00000+0 0  9994
2 46114   0.0219 149.1291 0002062 212.1754 225.3458  1.00272034 20278
