[{"OBJECT_NAME":"INTELSAT 23 (IS-23)","OBJECT_ID":"2012-057A","EPOCH":"2026-03-07T08:25:00.958656","MEAN_MOTION":1.00269653,"ECCENTRICITY":0.00012239,"INCLINATION":0.0458,"RA_OF_ASC_NODE":259.8698,"ARG_OF_PERICENTER":101.1609,"MEAN_ANOMALY":237.2625,"EPHEMERIS_TYPE":0,"CLASSIFICATION_TYPE":"U","NORAD_CAT_ID":38867,"ELEMENT_SET_NO":999,"REV_AT_EPOCH":4893,"BSTAR":0,"MEAN_MOTION_DOT":-2.87e-6,"MEAN_MOTION_DDOT":0},{"OBJECT_NAME":"FM-6","OBJECT_ID":"2013-058A","EPOCH":"2026-03-06T23:05:24.309888","MEAN_MOTION":1.00274361,"ECCENTRICITY":0.00030557,"INCLINATION":0.0226,"RA_OF_ASC_NODE":131.1335,"ARG_OF_PERICENTER":56.6832,"MEAN_ANOMALY":207.0436,"EPHEMERIS_TYPE":0,"CLASSIFICATION_TYPE":"U","NORAD_CAT_ID":39360,"ELEMENT_SET_NO":999,"REV_AT_EPOCH":4504,"BSTAR":0,"MEAN_MOTION_DOT":-2.0e-7,"MEAN_MOTION_DDOT":0},{"OBJECT_NAME":"INTELSAT 30 (IS-30)","OBJECT_ID":"2014-062A","EPOCH":"2026-03-07T08:26:38.710752","MEAN_MOTION":1.0027326,"ECCENTRICITY":0.00014244,"INCLINATION":0.0154,"RA_OF_ASC_NODE":86.803,"ARG_OF_PERICENTER":25.9767,"MEAN_ANOMALY":83.8948,"EPHEMERIS_TYPE":0,"CLASSIFICATION_TYPE":"U","NORAD_CAT_ID":40271,"ELEMENT_SET_NO":999,"REV_AT_EPOCH":577,"BSTAR":0,"MEAN_MOTION_DOT":-1.53e-6,"MEAN_MOTION_DDOT":0},{"OBJECT_NAME":"DIRECTV 14","OBJECT_ID":"2014-078B","EPOCH":"2026-03-07T08:26:38.710752","MEAN_MOTION":1.00271702,"ECCENTRICITY":5.131e-5,"INCLINATION":0.0192,"RA_OF_ASC_NODE":128.2415,"ARG_OF_PERICENTER":349.0233,"MEAN_ANOMALY":75.2164,"EPHEMERIS_TYPE":0,"CLASSIFICATION_TYPE":"U","NORAD_CAT_ID":40333,"ELEMENT_SET_NO":999,"REV_AT_EPOCH":4102,"BSTAR":0,"MEAN_MOTION_DOT":-1.27e-6,"MEAN_MOTION_DDOT":0},{"OBJECT_NAME":"DIRECTV 15","OBJECT_ID":"2015-026A","EPOCH":"2026-03-07T08:50:38.755104","MEAN_MOTION":1.00268719,"ECCENTRICITY":8.586e-5,"INCLINATION":0.0217,"RA_OF_ASC_NODE":104.5304,"ARG_OF_PERICENTER":73.6227,"MEAN_ANOMALY":16.6984,"EPHEMERIS_TYPE":0,"CLASSIFICATION_TYPE":"U","NORAD_CAT_ID":40663,"ELEMENT_SET_NO":999,"REV_AT_EPOCH":3944,"BSTAR":0,"MEAN_MOTION_DOT":-1.04e-6,"MEAN_MOTION_DDOT":0},{"OBJECT_NAME":"SKY MEXICO-1","OBJECT_ID":"2015-026B","EPOCH":"2026-03-07T08:18:38.763936","MEAN_MOTION":1.0027201,"ECCENTRICITY":0.00022264,"INCLINATION":0.0126,"RA_OF_ASC_NODE":112.5928,"ARG_OF_PERICENTER":253.6778,"MEAN_ANOMALY":204.6367,"EPHEMERIS_TYPE":0,"CLASSIFICATION_TYPE":"U","NORAD_CAT_ID":40664,"ELEMENT_SET_NO":999,"REV_AT_EPOCH":3943,"BSTAR":0,"MEAN_MOTION_DOT":-2.36e-6,"MEAN_MOTION_DDOT":0},{"OBJECT_NAME":"INTELSAT 34 (IS-34)","OBJECT_ID":"2015-039A","EPOCH":"2026-03-07T06:48:31.356864","MEAN_MOTION":1.00271292,"ECCENTRICITY":2.577e-5,"INCLINATION":0.0185,"RA_OF_ASC_NODE":251.7915,"ARG_OF_PERICENTER":198.2464,"MEAN_ANOMALY":121.5847,"EPHEMERIS_TYPE":0,"CLASSIFICATION_TYPE":"U","NORAD_CAT_ID":40874,"ELEMENT_SET_NO":999,"REV_AT_EPOCH":3860,"BSTAR":0,"MEAN_MOTION_DOT":-2.87e-6,"MEAN_MOTION_DDOT":0},{"OBJECT_NAME":"INTELSAT 31 (IS-31)","OBJECT_ID":"2016-035A","EPOCH":"2026-03-07T08:26:38.710752","MEAN_MOTION":1.00268708,"ECCENTRICITY":0.00016789,"INCLINATION":0.0355,"RA_OF_ASC_NODE":248.8943,"ARG_OF_PERICENTER":334.5562,"MEAN_ANOMALY":333.2149,"EPHEMERIS_TYPE":0,"CLASSIFICATION_TYPE":"U","NORAD_CAT_ID":41581,"ELEMENT_SET_NO":999,"REV_AT_EPOCH":3566,"BSTAR":0,"MEAN_MOTION_DOT":-1.52e-6,"MEAN_MOTION_DDOT":0},{"OBJECT_NAME":"INTELSAT 36 (IS-36)","OBJECT_ID":"2016-053A","EPOCH":"2026-03-07T15:19:49.740960","MEAN_MOTION":1.00271147,"ECCENTRICITY":0.00011531,"INCLINATION":0.0167,"RA_OF_ASC_NODE":122.3899,"ARG_OF_PERICENTER":218.2351,"MEAN_ANOMALY":123.1847,"EPHEMERIS_TYPE":0,"CLASSIFICATION_TYPE":"U","NORAD_CAT_ID":41747,"ELEMENT_SET_NO":999,"REV_AT_EPOCH":3494,"BSTAR":0,"MEAN_MOTION_DOT":0,"MEAN_MOTION_DDOT":0},{"OBJECT_NAME":"INTELSAT 32E (IS-32E)","OBJECT_ID":"2017-007B","EPOCH":"2026-03-07T10:42:38.856384","MEAN_MOTION":1.00271618,"ECCENTRICITY":1.812e-5,"INCLINATION":0.0192,"RA_OF_ASC_NODE":133.7918,"ARG_OF_PERICENTER":162.3674,"MEAN_ANOMALY":346.464,"EPHEMERIS_TYPE":0,"CLASSIFICATION_TYPE":"U","NORAD_CAT_ID":41945,"ELEMENT_SET_NO":999,"REV_AT_EPOCH":3320,"BSTAR":0,"MEAN_MOTION_DOT":-2.71e-6,"MEAN_MOTION_DDOT":0},{"OBJECT_NAME":"INTELSAT 35E (IS-35E)","OBJECT_ID":"2017-041A","EPOCH":"2026-03-07T10:34:38.671104","MEAN_MOTION":1.00272362,"ECCENTRICITY":0.00020771,"INCLINATION":0.0155,"RA_OF_ASC_NODE":221.2887,"ARG_OF_PERICENTER":129.3402,"MEAN_ANOMALY":298.6594,"EPHEMERIS_TYPE":0,"CLASSIFICATION_TYPE":"U","NORAD_CAT_ID":42818,"ELEMENT_SET_NO":999,"REV_AT_EPOCH":3179,"BSTAR":0,"MEAN_MOTION_DOT":-2.4e-6,"MEAN_MOTION_DDOT":0},{"OBJECT_NAME":"INTELSAT 37E (IS-37E)","OBJECT_ID":"2017-059A","EPOCH":"2026-03-07T10:26:38.707008","MEAN_MOTION":1.00271589,"ECCENTRICITY":0.00021341,"INCLINATION":0.0202,"RA_OF_ASC_NODE":136.6451,"ARG_OF_PERICENTER":213.9835,"MEAN_ANOMALY":313.1587,"EPHEMERIS_TYPE":0,"CLASSIFICATION_TYPE":"U","NORAD_CAT_ID":42950,"ELEMENT_SET_NO":999,"REV_AT_EPOCH":3104,"BSTAR":0,"MEAN_MOTION_DOT":-1.42e-6,"MEAN_MOTION_DDOT":0},{"OBJECT_NAME":"AZERSPACE 2 (IS-38)","OBJECT_ID":"2018-074A","EPOCH":"2026-03-07T07:58:38.502912","MEAN_MOTION":1.00271055,"ECCENTRICITY":0.00013884,"INCLINATION":0.0202,"RA_OF_ASC_NODE":154.9815,"ARG_OF_PERICENTER":200.5147,"MEAN_ANOMALY":334.3262,"EPHEMERIS_TYPE":0,"CLASSIFICATION_TYPE":"U","NORAD_CAT_ID":43632,"ELEMENT_SET_NO":999,"REV_AT_EPOCH":2742,"BSTAR":0,"MEAN_MOTION_DOT":0,"MEAN_MOTION_DDOT":0},{"OBJECT_NAME":"HORIZONS-3E","OBJECT_ID":"2018-074B","EPOCH":"2026-03-07T11:35:38.696928","MEAN_MOTION":1.00272186,"ECCENTRICITY":5.69e-5,"INCLINATION":0.0156,"RA_OF_ASC_NODE":334.833,"ARG_OF_PERICENTER":12.7152,"MEAN_ANOMALY":160.5189,"EPHEMERIS_TYPE":0,"CLASSIFICATION_TYPE":"U","NORAD_CAT_ID":43633,"ELEMENT_SET_NO":999,"REV_AT_EPOCH":2732,"BSTAR":0,"MEAN_MOTION_DOT":-3.2e-7,"MEAN_MOTION_DDOT":0},{"OBJECT_NAME":"AT&T T-16","OBJECT_ID":"2019-034A","EPOCH":"2026-03-07T04:20:38.794848","MEAN_MOTION":1.00270779,"ECCENTRICITY":7.16e-5,"INCLINATION":0.0218,"RA_OF_ASC_NODE":103.9906,"ARG_OF_PERICENTER":59.5848,"MEAN_ANOMALY":325.6068,"EPHEMERIS_TYPE":0,"CLASSIFICATION_TYPE":"U","NORAD_CAT_ID":44333,"ELEMENT_SET_NO":999,"REV_AT_EPOCH":2461,"BSTAR":0,"MEAN_MOTION_DOT":-1.17e-6,"MEAN_MOTION_DDOT":0},{"OBJECT_NAME":"INTELSAT 39 (IS-39)","OBJECT_ID":"2019-049B","EPOCH":"2026-03-07T15:14:22.787808","MEAN_MOTION":1.00270382,"ECCENTRICITY":5.784e-5,"INCLINATION":0.0212,"RA_OF_ASC_NODE":154.5495,"ARG_OF_PERICENTER":348.7083,"MEAN_ANOMALY":312.6256,"EPHEMERIS_TYPE":0,"CLASSIFICATION_TYPE":"U","NORAD_CAT_ID":44476,"ELEMENT_SET_NO":999,"REV_AT_EPOCH":2410,"BSTAR":0,"MEAN_MOTION_DOT":0,"MEAN_MOTION_DDOT":0},{"OBJECT_NAME":"GALAXY 30 (G-30)","OBJECT_ID":"2020-056C","EPOCH":"2026-03-07T12:25:38.664768","MEAN_MOTION":1.00272034,"ECCENTRICITY":0.00020624,"INCLINATION":0.0219,"RA_OF_ASC_NODE":149.1291,"ARG_OF_PERICENTER":212.1754,"MEAN_ANOMALY":225.3458,"EPHEMERIS_TYPE":0,"CLASSIFICATION_TYPE":"U","NORAD_CAT_ID":46114,"ELEMENT_SET_NO":999,"REV_AT_EPOCH":2027,"BSTAR":0,"MEAN_MOTION_DOT":0,"MEAN_MOTION_DDOT":0}]
